     2.100          NAVIGATION                              RINEX VERSION / TYPE
fic2rin                                 06/07/2015 00:20:21 PGM / RUN BY / DATE
                                                            END OF HEADER
 5 15  6  6 16  0  0.0 -.232595484704D-03  .454747350886D-11  .000000000000D+00
     .118000000000D+03  .213750000000D+02  .509021202776D-08  .641501316213D+00
     .120326876640D-05  .413657748140D-02  .633299350739D-05  .515356363869D+04
     .576000000000D+06  .931322574615D-08 -.102144191337D+01  .577419996262D-07
     .946140102647D+00  .248906250000D+03  .371334928893D+00 -.833463288520D-08
     .302155443130D-09  .100000000000D+01  .184700000000D+04  .000000000000D+00
     .240000000000D+01  .000000000000D+00 -.107102096081D-07  .118000000000D+03
     .568806000000D+06  .400000000000D+01
 6 15  6  6 16  0  0.0  .178360380232D-03  .886757334229D-11  .000000000000D+00
     .540000000000D+02 -.435000000000D+02  .421338979031D-08 -.702606571984D+00
    -.225566327572D-05  .152948545292D-03  .118073076010D-04  .515376826096D+04
     .576000000000D+06  .707805156708D-07 -.206370652431D+01  .204890966415D-07
     .962060490047D+00  .154218750000D+03 -.277012319475D+01 -.782675458717D-08
     .300012496725D-09  .100000000000D+01  .184700000000D+04  .000000000000D+00
     .240000000000D+01  .000000000000D+00  .419095158577D-08  .540000000000D+02
     .568806000000D+06  .400000000000D+01
 7 15  6  6 16  0  0.0  .466997735202D-03  .238742359215D-11  .000000000000D+00
     .300000000000D+02  .111000000000D+03  .411088552060D-08 -.294675686722D+01
     .563077628613D-05  .844386755489D-02  .105798244476D-04  .515372333908D+04
     .576000000000D+06 -.931322574615D-07  .110467428932D+01 -.117346644402D-06
     .970217080499D+00  .183843750000D+03 -.275169128715D+01 -.772460747519D-08
     .457161899771D-10  .100000000000D+01  .184700000000D+04  .000000000000D+00
     .240000000000D+01  .000000000000D+00 -.111758708954D-07  .300000000000D+02
     .568806000000D+06  .400000000000D+01
 8 15  6  6 16  0  0.0 -.222804024816D-03 -.159161572810D-11  .000000000000D+00
     .430000000000D+02  .357500000000D+02  .566523597982D-08  .877778764426D+00
     .211410224438D-05  .777729460970D-02  .295415520668D-05  .515371431732D+04
     .576000000000D+06 -.372529029846D-08  .214739204352D+01  .130385160446D-06
     .982853794663D+00  .334093750000D+03  .885887211707D+00 -.836749139675D-08
     .214294640518D-11  .100000000000D+01  .184700000000D+04  .000000000000D+00
     .240000000000D+01  .630000000000D+02 -.190921127796D-07  .430000000000D+02
     .568806000000D+06  .400000000000D+01
 9 15  6  6 16  0  0.0 -.167034100741D-03 -.500222085975D-11  .000000000000D+00
     .400000000000D+02 -.728125000000D+01  .474341186786D-08 -.847719073371D+00
    -.685453414917D-06  .455211731605D-03  .837072730064D-05  .515379684258D+04
     .576000000000D+06  .614672899246D-07  .285656069693D-01  .372529029846D-07
     .957704111649D+00  .214718750000D+03  .258540155000D+01 -.809569436102D-08
    -.406802659249D-09  .100000000000D+01  .184700000000D+04  .000000000000D+00
     .240000000000D+01  .000000000000D+00  .465661287308D-09  .400000000000D+02
     .568806000000D+06  .400000000000D+01
11 15  6  6 16  0  0.0 -.583226792514D-03 -.250111042988D-11  .000000000000D+00
     .187000000000D+03 -.864375000000D+02  .548629995499D-08 -.288840245481D+01
    -.441260635853D-05  .158159724670D-01  .111181288958D-04  .515374728012D+04
     .576000000000D+06  .158324837685D-06 -.240664137542D+01 -.149011611938D-07
     .893377064078D+00  .123781250000D+03  .140884575389D+01 -.818641242551D-08
     .108575951196D-09  .100000000000D+01  .184700000000D+04  .000000000000D+00
     .340000000000D+01  .000000000000D+00 -.121071934700D-07  .187000000000D+03
     .568806000000D+06  .400000000000D+01
12 15  6  6 16  0  0.0  .299212057143D-03  .318323145621D-11  .000000000000D+00
     .115000000000D+03  .350937500000D+02  .412945772278D-08  .278669133009D+01
     .161491334438D-05  .559966824949D-02  .296719372272D-05  .515367080688D+04
     .576000000000D+06 -.135973095894D-06  .217413386709D+01 -.484287738800D-07
     .989609942415D+00  .334562500000D+03  .610542773180D+00 -.802354849872D-08
     .525021869268D-10  .100000000000D+01  .184700000000D+04  .000000000000D+00
     .240000000000D+01  .000000000000D+00 -.121071934700D-07  .115000000000D+03
     .568806000000D+06  .400000000000D+01
13 15  6  6 16  0  0.0 -.121022108942D-03 -.341060513165D-11  .000000000000D+00
     .600000000000D+01 -.384375000000D+01  .429946480425D-08 -.219105201144D+01
    -.484287738800D-07  .507107272279D-02  .912509858608D-05  .515368053246D+04
     .576000000000D+06  .130385160446D-07  .143773469062D+00  .670552253723D-07
     .974446227448D+00  .211125000000D+03  .209140049251D+01 -.780568228086D-08
    -.443232748137D-09  .100000000000D+01  .184700000000D+04  .000000000000D+00
     .240000000000D+01  .000000000000D+00 -.111758708954D-07  .600000000000D+01
     .568806000000D+06  .400000000000D+01
14 15  6  6 16  0  0.0  .579985789955D-04 -.284217094304D-11  .000000000000D+00
     .240000000000D+02 -.275000000000D+01  .455233248006D-08 -.269901065183D+00
    -.173225998878D-06  .818981346674D-02  .885315239429D-05  .515360278320D+04
     .576000000000D+06 -.104308128357D-06  .109126960753D+00  .670552253723D-07
     .966928510876D+00  .216687500000D+03 -.197627600358D+01 -.811569519414D-08
    -.381444460121D-09  .100000000000D+01  .184700000000D+04  .000000000000D+00
     .240000000000D+01  .000000000000D+00 -.931322574615D-08  .240000000000D+02
     .568806000000D+06  .400000000000D+01
16 15  6  6 16  0  0.0 -.121648423374D-03  .386535248253D-11  .000000000000D+00
     .500000000000D+02  .267812500000D+02  .423303346569D-08  .715517612546D+00
     .161305069923D-05  .817773351446D-02  .208243727684D-05  .515356259727D+04
     .576000000000D+06  .707805156708D-07  .219282252999D+01  .109896063805D-06
     .990164773114D+00  .350187500000D+03  .309060906907D+00 -.823391440416D-08
    -.542879755978D-10  .100000000000D+01  .184700000000D+04  .000000000000D+00
     .240000000000D+01  .000000000000D+00 -.102445483208D-07  .500000000000D+02
     .568806000000D+06  .400000000000D+01
17 15  6  6 16  0  0.0 -.174671411514D-03 -.170530256582D-11  .000000000000D+00
     .270000000000D+02 -.117375000000D+03  .436803908922D-08 -.226402010941D+00
    -.605359673500D-05  .101116208825D-01  .636279582977D-05  .515377591133D+04
     .576000000000D+06 -.167638063431D-07 -.306403538306D+01  .171363353729D-06
     .972916743670D+00  .264500000000D+03 -.200962991404D+01 -.830927468607D-08
    -.344300055765D-09  .100000000000D+01  .184700000000D+04  .000000000000D+00
     .240000000000D+01  .000000000000D+00 -.107102096081D-07  .270000000000D+02
     .568806000000D+06  .400000000000D+01
18 15  6  6 16  0  0.0  .407271087170D-03  .295585778076D-11  .000000000000D+00
     .340000000000D+02  .227812500000D+02  .567130766130D-08  .129418185594D+01
     .112317502499D-05  .162822338752D-01  .633671879768D-05  .515360300636D+04
     .576000000000D+06 -.389292836189D-06 -.103481509707D+01 -.689178705215D-07
     .924715137800D+00  .239656250000D+03 -.195836416774D+01 -.881501003769D-08
     .246081678861D-09  .100000000000D+01  .184700000000D+04  .000000000000D+00
     .240000000000D+01  .000000000000D+00 -.111758708954D-07  .340000000000D+02
     .568806000000D+06  .400000000000D+01
19 15  6  6 16  0  0.0 -.512615311891D-03 -.113686837722D-11  .000000000000D+00
     .860000000000D+02 -.106843750000D+03  .428910722996D-08 -.101916584983D+01
    -.562518835068D-05  .114561327500D-01  .703521072865D-05  .515373495865D+04
     .576000000000D+06  .262632966042D-06 -.301448550215D+01  .316649675369D-07
     .969993678279D+00  .247125000000D+03  .557084447683D+00 -.803426323074D-08
    -.337514058815D-09  .100000000000D+01  .184700000000D+04  .000000000000D+00
     .340000000000D+01  .000000000000D+00 -.153668224812D-07  .860000000000D+02
     .568806000000D+06  .400000000000D+01
20 15  6  6 16  0  0.0  .327084213495D-03  .352429196937D-11  .000000000000D+00
     .960000000000D+02  .259062500000D+02  .551022952318D-08 -.607028146142D+00
     .154599547386D-05  .560187175870D-02  .661425292492D-05  .515581583977D+04
     .576000000000D+06 -.353902578354D-07 -.108718850789D+01  .558793544769D-07
     .925882196790D+00  .233968750000D+03  .122204312280D+01 -.858785771874D-08
     .393587823084D-09  .100000000000D+01  .184700000000D+04  .000000000000D+00
     .240000000000D+01  .000000000000D+00 -.838190317154D-08  .960000000000D+02
     .568806000000D+06  .400000000000D+01
21 15  6  6 16  0  0.0 -.452891923487D-03 -.341060513165D-11  .000000000000D+00
     .790000000000D+02 -.436875000000D+02  .468733810359D-08  .240286515668D+01
    -.240653753281D-05  .224769841880D-01  .106841325760D-04  .515381446266D+04
     .576000000000D+06  .245869159698D-06 -.207847945290D+01 -.286847352982D-06
     .933889255070D+00  .154437500000D+03 -.190386606298D+01 -.770746390395D-08
     .282868925483D-09  .100000000000D+01  .184700000000D+04  .000000000000D+00
     .240000000000D+01  .000000000000D+00 -.116415321827D-07  .790000000000D+02
     .568806000000D+06  .400000000000D+01
23 15  6  6 16  0  0.0 -.113142188638D-03 -.238742359215D-11  .000000000000D+00
     .190000000000D+02 -.546875000000D+01  .492877673191D-08 -.139353023191D+01
    -.486150383949D-06  .102534062462D-01  .790879130363D-05  .515360392380D+04
     .576000000000D+06  .149011611938D-06  .370890650913D-01 -.596046447754D-07
     .948730515097D+00  .214500000000D+03 -.267378679594D+01 -.812426697976D-08
    -.283226083217D-09  .100000000000D+01  .184700000000D+04  .000000000000D+00
     .240000000000D+01  .000000000000D+00 -.200234353542D-07  .190000000000D+02
     .568806000000D+06  .400000000000D+01
